NORAD_CAT_ID,OBJECT_NAME,OBJECT_TYPE,EPOCH,MEAN_MOTION,ECCENTRICITY,INCLINATION,RA_OF_ASC_NODE,ARG_OF_PERICENTER,MEAN_ANOMALY,BSTAR,MEAN_MOTION_DOT,MEAN_MOTION_DDOT,TLE_LINE0,TLE_LINE1,TLE_LINE2,SEMIMAJOR_AXIS,PERIOD,APOGEE,PERIGEE,DECAYED
55411.0,STARLINK-5605,PAYLOAD,2024-02-25 22:30:24,14.98337396,0.0003012,70.0005,137.3947,266.0444,94.0371,0.0001154,1.284e-05,0.0,0 STARLINK-5605,1 55411U 23014W   24056.93778113  .00001284  00000-0  11540-3 0  9991,2 55411  70.0005 137.3947 0003012 266.0444  94.0371 14.98337396 60795,6950.17,96.107,574.128,569.942,0.0
55411.0,STARLINK-5605,PAYLOAD,2024-02-26 11:19:30,14.98317497,0.000296,70.0007,136.048,264.7163,95.3659,-0.00018307,-2.276e-05,0.0,0 STARLINK-5605,1 55411U 23014W   24057.47188152 -.00002276  00000-0 -18307-3 0  9991,2 55411  70.0007 136.0480 0002960 264.7163  95.3659 14.98317497 59936,6950.232,96.108,574.154,570.039,0.0
55411.0,STARLINK-5605,PAYLOAD,2024-02-26 14:31:46,14.98320231,0.0002902,70.0005,135.7116,265.3817,94.7011,-0.00015114,-1.895e-05,0.0,0 STARLINK-5605,1 55411U 23014W   24057.60539978 -.00001895  00000-0 -15114-3 0  9991,2 55411  70.0005 135.7116 0002902 265.3817  94.7011 14.98320231 60897,6950.223,96.108,574.105,570.071,0.0
55411.0,STARLINK-5605,PAYLOAD,2024-02-27 11:21:30,14.983305,0.0003167,70.0014,133.5228,264.686,95.3938,6.168e-05,6.43e-06,0.0,0 STARLINK-5605,1 55411U 23014W   24058.47326832  .00000643  00000-0  61680-4 0  9998,2 55411  70.0014 133.5228 0003167 264.6860  95.3938 14.98330500 60087,6950.191,96.107,574.257,569.855,0.0
55411.0,STARLINK-5605,PAYLOAD,2024-02-27 14:33:46,14.98328783,0.000317,70.0015,133.186,263.5064,96.5735,0.00087109,0.00010316,0.0,0 STARLINK-5605,1 55411U 23014W   24058.60679304  .00010316  00000-0  87109-3 0  9999,2 55411  70.0015 133.1860 0003170 263.5064  96.5735 14.98328783 61049,6950.197,96.107,574.265,569.858,0.0
55411.0,STARLINK-5605,PAYLOAD,2024-02-27 22:34:27,14.98331841,0.0003149,70.0014,132.3437,265.0248,95.0552,0.00074915,8.858e-05,0.0,0 STARLINK-5605,1 55411U 23014W   24058.94059398  .00008858  00000-0  74915-3 0  9990,2 55411  70.0014 132.3437 0003149 265.0248  95.0552 14.98331841 61091,6950.187,96.107,574.241,569.864,0.0
55411.0,STARLINK-5605,PAYLOAD,2024-02-28 11:23:31,14.98337433,0.0003127,70.0013,130.9975,265.232,94.8482,0.00058509,6.896e-05,0.0,0 STARLINK-5605,1 55411U 23014W   24059.47467294  .00006896  00000-0  58509-3 0  9998,2 55411  70.0013 130.9975 0003127 265.2320  94.8482 14.98337433 60237,6950.17,96.107,574.208,569.862,0.0
55411.0,STARLINK-5605,PAYLOAD,2024-02-28 14:35:47,14.98337981,0.0003143,70.0012,130.661,265.3426,94.7374,0.00054335,6.397e-05,0.0,0 STARLINK-5605,1 55411U 23014W   24059.60819276  .00006397  00000-0  54335-3 0  9993,2 55411  70.0012 130.6610 0003143 265.3426  94.7374 14.98337981 61198,6950.168,96.106,574.218,569.849,0.0
55411.0,STARLINK-5605,PAYLOAD,2024-02-29 11:25:32,14.98339873,0.0003075,70.001,128.4729,265.8012,94.2796,0.00030291,3.524e-05,0.0,0 STARLINK-5605,1 55411U 23014W   24060.47606936  .00003524  00000-0  30291-3 0  9991,2 55411  70.0010 128.4729 0003075 265.8012  94.2796 14.98339873 60387,6950.162,96.106,574.165,569.89,0.0
55411.0,STARLINK-5605,PAYLOAD,2024-02-29 14:37:48,14.98339491,0.0003099,70.001,128.1363,266.0414,94.0391,0.00026393,3.058e-05,0.0,0 STARLINK-5605,1 55411U 23014W   24060.60958873  .00003058  00000-0  26393-3 0  9996,2 55411  70.0010 128.1363 0003099 266.0414  94.0391 14.98339491 61345,6950.164,96.106,574.182,569.875,0.0
55411.0,STARLINK-5605,PAYLOAD,2024-03-01 11:27:33,14.98336716,0.0002987,70.001,125.9491,263.9253,96.1565,0.00015239,1.726e-05,0.0,0 STARLINK-5605,1 55411U 23014W   24061.47746791  .00001726  00000-0  15239-3 0  9993,2 55411  70.0010 125.9491 0002987 263.9253  96.1565 14.98336716 60537,6950.172,96.107,574.113,569.961,0.0
55411.0,STARLINK-5605,PAYLOAD,2024-03-01 14:39:49,14.98334722,0.0002694,70.001,125.6124,263.7931,96.2921,0.00024151,2.79e-05,0.0,0 STARLINK-5605,1 55411U 23014W   24061.61098915  .00002790  00000-0  24151-3 0  9992,2 55411  70.0010 125.6124 0002694 263.7931  96.2921 14.98334722 61491,6950.178,96.107,573.916,570.171,0.0
55411.0,STARLINK-5605,PAYLOAD,2024-03-02 11:29:34,14.98333132,0.0002876,70.0,123.4224,266.4011,93.6819,8.1101e-05,8.75e-06,0.0,0 STARLINK-5605,1 55411U 23014W   24062.47886941  .00000875  00000-0  81101-4 0  9992,2 55411  70.0000 123.4224 0002876 266.4011  93.6819 14.98333132 60689,6950.183,96.107,574.047,570.049,0.0
55411.0,STARLINK-5605,PAYLOAD,2024-03-02 13:05:42,14.98333031,0.0002779,70.0,123.2542,263.5348,96.5494,7.404e-05,7.91e-06,0.0,0 STARLINK-5605,1 55411U 23014W   24062.54562931  .00000791  00000-0  74040-4 0  9991,2 55411  70.0000 123.2542 0002779 263.5348  96.5494 14.98333031 61638,6950.184,96.107,573.98,570.117,0.0
55411.0,STARLINK-5605,PAYLOAD,2024-03-03 11:31:35,14.98331985,0.0002965,69.9995,120.8979,267.8875,92.1944,5.2139e-05,5.29e-06,0.0,0 STARLINK-5605,1 55411U 23014W   24063.48026914  .00000529  00000-0  52139-4 0  9995,2 55411  69.9995 120.8979 0002965 267.8875  92.1944 14.98331985 60833,6950.187,96.107,574.112,569.991,0.0
55411.0,STARLINK-5605,PAYLOAD,2024-03-03 13:07:43,14.98332123,0.0002943,69.9996,120.7297,267.9353,92.1469,5.3841e-05,5.5e-06,0.0,0 STARLINK-5605,1 55411U 23014W   24063.54702873  .00000550  00000-0  53841-4 0  9992,2 55411  69.9996 120.7297 0002943 267.9353  92.1469 14.98332123 61786,6950.186,96.107,574.097,570.006,0.0
55411.0,STARLINK-5605,PAYLOAD,2024-03-04 11:33:35,14.98336223,0.0002981,69.9993,118.3728,269.0452,91.0365,0.00016757,1.907e-05,0.0,0 STARLINK-5605,1 55411U 23014W   24064.48166323  .00001907  00000-0  16757-3 0  9991,2 55411  69.9993 118.3728 0002981 269.0452  91.0365 14.98336223 60989,6950.174,96.107,574.11,569.967,0.0
55411.0,STARLINK-5605,PAYLOAD,2024-03-04 13:09:43,14.98337624,0.0002968,69.9993,118.2046,269.3779,90.704,0.00014579,1.647e-05,0.0,0 STARLINK-5605,1 55411U 23014W   24064.54842226  .00001647  00000-0  14579-3 0  9992,2 55411  69.9993 118.2046 0002968 269.3779  90.7040 14.98337624 61939,6950.169,96.107,574.097,569.972,0.0
55411.0,STARLINK-5605,PAYLOAD,2024-03-04 21:10:25,14.98322911,0.000226,70.0019,117.3625,281.3883,78.7023,1.0922e-05,3.7e-07,0.0,0 STARLINK-5605,1 55411U 23014W   24064.88223746  .00000037  00000-0  10922-4 0  9990,2 55411  70.0019 117.3625 0002260 281.3883  78.7023 14.98322911 61984,6950.215,96.107,573.651,570.509,0.0
55411.0,STARLINK-5605,PAYLOAD,2024-03-05 13:11:46,14.98320522,0.0002705,69.9999,115.6793,265.665,94.42,-6.8796e-05,-9.13e-06,0.0,0 STARLINK-5605,1 55411U 23014W   24065.54984158 -.00000913  00000-0 -68796-4 0  9992,2 55411  69.9999 115.6793 0002705 265.6650  94.4200 14.98320522 62086,6950.222,96.108,573.967,570.207,0.0
55411.0,STARLINK-5605,PAYLOAD,2024-03-06 03:36:58,14.98329595,0.000288,69.9991,114.1652,269.1597,90.9232,5.9739e-05,6.2e-06,0.0,0 STARLINK-5605,1 55411U 23014W   24066.15067595  .00000620  00000-0  59739-4 0  9997,2 55411  69.9991 114.1652 0002880 269.1597  90.9232 14.98329595 61230,6950.194,96.107,574.061,570.057,0.0
55411.0,STARLINK-5605,PAYLOAD,2024-03-06 13:13:46,14.98335987,0.000284,69.9992,113.1552,268.7449,91.3385,0.000103,1.136e-05,0.0,0 STARLINK-5605,1 55411U 23014W   24066.55123240  .00001136  00000-0  10300-3 0  9994,2 55411  69.9992 113.1552 0002840 268.7449  91.3385 14.98335987 62233,6950.174,96.107,574.013,570.066,0.0
55411.0,STARLINK-5605,PAYLOAD,2024-03-07 03:38:59,14.98330523,0.000281,69.999,111.6402,268.6721,91.4116,0.00031519,3.67e-05,0.0,0 STARLINK-5605,1 55411U 23014W   24067.15207345  .00003670  00000-0  31519-3 0  9990,2 55411  69.9990 111.6402 0002810 268.6721  91.4116 14.98330523 61386,6950.191,96.107,574.009,570.103,0.0
55411.0,STARLINK-5605,PAYLOAD,2024-03-07 13:15:47,14.98344675,0.0002822,70.0008,110.6306,269.6036,90.48,0.00050208,5.905e-05,0.0,0 STARLINK-5605,1 55411U 23014W   24067.55263129  .00005905  00000-0  50208-3 0  9995,2 55411  70.0008 110.6306 0002822 269.6036  90.4800 14.98344675 62387,6950.148,96.106,573.974,570.051,0.0
55411.0,STARLINK-5605,PAYLOAD,2024-03-08 03:40:59,14.98342592,0.0002616,70.0012,109.1159,267.3704,92.7156,0.00023603,2.725e-05,0.0,0 STARLINK-5605,1 55411U 23014W   24068.15346839  .00002725  00000-0  23603-3 0  9998,2 55411  70.0012 109.1159 0002616 267.3704  92.7156 14.98342592 61530,6950.154,96.106,573.837,570.201,0.0
55411.0,STARLINK-5605,PAYLOAD,2024-03-08 11:41:40,14.9833784,0.0002737,70.0006,108.2742,267.9299,92.1546,0.00010123,1.115e-05,0.0,0 STARLINK-5605,1 55411U 23014W   24068.48726880  .00001115  00000-0  10123-3 0  9997,2 55411  70.0006 108.2742 0002737 267.9299  92.1546 14.98337840 62527,6950.169,96.106,573.936,570.131,0.0
55411.0,STARLINK-5605,PAYLOAD,2024-03-08 19:42:20,14.98331867,0.00026,70.0008,107.4327,266.9383,93.1478,0.00027415,3.18e-05,0.0,0 STARLINK-5605,1 55411U 23014W   24068.82107146  .00003180  00000-0  27415-3 0  9999,2 55411  70.0008 107.4327 0002600 266.9383  93.1478 14.98331867 61630,6950.187,96.107,573.859,570.245,0.0
55411.0,STARLINK-5605,PAYLOAD,2024-03-09 11:43:40,14.98335616,0.0002779,69.9992,105.7489,267.8764,92.2077,-7.7892e-06,-1.86e-06,0.0,0 STARLINK-5605,1 55411U 23014W   24069.48866809 -.00000186  00000-0 -77892-5 0  9991,2 55411  69.9992 105.7489 0002779 267.8764  92.2077 14.98335616 62675,6950.176,96.107,573.972,570.109,0.0
55411.0,STARLINK-5605,PAYLOAD,2024-03-09 19:44:20,14.98337281,0.0002945,69.9988,104.9068,271.8566,88.2256,-1.3655e-05,-2.56e-06,0.0,0 STARLINK-5605,1 55411U 23014W   24069.82246512 -.00000256  00000-0 -13655-4 0  9996,2 55411  69.9988 104.9068 0002945 271.8566  88.2256 14.98337281 62724,6950.17,96.107,574.082,569.989,0.0
55411.0,STARLINK-5605,PAYLOAD,2024-03-10 03:45:01,14.9833157,0.0002939,69.9988,104.0651,269.0675,91.0148,3.5875e-05,3.35e-06,0.0,0 STARLINK-5605,1 55411U 23014W   24070.15626696  .00000335  00000-0  35875-4 0  9993,2 55411  69.9988 104.0651 0002939 269.0675  91.0148 14.98331570 61834,6950.188,96.107,574.096,570.01,0.0
